OBJECT_NAME,OBJECT_ID,EPOCH,MEAN_MOTION,ECCENTRICITY,INCLINATION,RA_OF_ASC_NODE,ARG_OF_PERICENTER,MEAN_ANOMALY,EPHEMERIS_TYPE,CLASSIFICATION_TYPE,NORAD_CAT_ID,ELEMENT_SET_NO,REV_AT_EPOCH,BSTAR,MEAN_MOTION_DOT,MEAN_MOTION_DDOT
EYESAT A (AO-27),1993-061C,2026-07-14T09:50:19.425984,14.30948934,.00088028,98.6869,262.8119,28.0546,332.1110,0,U,22825,999,71089,.3239019E-4,.4E-6,0
ITAMSAT (IO-26),1993-061D,2026-07-14T04:06:59.813568,14.31376485,.00090208,98.6816,262.4937,12.3228,347.8174,0,U,22826,999,71117,.31180096E-4,.38E-6,0
RADIO ROSTO (RS15),1994-085A,2026-07-14T12:30:06.550560,11.27583545,.01568942,64.8152,259.0113,358.8329,1.2209,0,U,23439,999,29898,.18080078E-3,-.36E-6,0
JAS-2 (FO-29),1996-046B,2026-07-14T12:26:32.106624,13.53275620,.03503937,98.5220,40.6440,25.6940,336.1154,0,U,24278,999,47686,.47763822E-4,.13E-6,0
FORTE,1997-047A,2026-07-14T14:58:42.106944,14.27955250,.00243481,69.9547,312.0472,244.1843,115.6768,0,U,24920,999,50260,.46511774E-4,.58E-6,0
TECHSAT 1B (GO-32),1998-043D,2026-07-14T12:42:16.116480,14.24433285,.00021716,99.0085,188.9795,115.5342,244.6061,0,U,25397,999,45522,.22944989E-4,.6E-7,0
ISS (ZARYA),1998-067A,2026-07-14T09:52:42.163104,15.49007257,.00067026,51.6306,165.3606,294.7447,65.2843,0,U,25544,999,57597,.80585034E-4,.3993E-4,0
IMAGE,2000-017A,2026-07-10T09:33:22.635360,1.68666826,.74160542,94.2468,315.6762,285.1805,9.7435,0,U,26113,999,16189,0,-.42E-6,0
CLUSTER II-FM7 (SAMBA),2000-041A,2026-07-11T16:19:30.897408,0.44896530,.90823116,149.8437,55.3938,272.8334,359.6328,0,U,26410,999,2042,0,.12833E-3,0
CLUSTER II-FM8 (TANGO),2000-045B,2026-07-12T04:49:18.415776,0.44428696,.90878293,150.0466,56.7498,274.0539,2.1034,0,U,26464,999,2042,0,.13276E-3,0
ODIN,2001-007A,2026-07-14T14:43:42.033216,15.89188235,.00051326,97.3736,238.5522,154.7037,205.4488,0,U,26702,999,39373,.9781683E-3,.278852E-2,.30205341E-4
OMNI-M1,2001-026A,2026-07-13T05:13:11.261280,3.92401929,.00135225,44.8246,239.2639,57.5126,302.6838,0,U,26857,999,20659,0,.18E-6,0
PCSAT (NO-44),2001-043C,2026-07-14T07:53:52.899936,14.31964812,.00059278,67.0494,174.0696,266.5603,93.4821,0,U,26931,999,29433,.34932941E-4,.11E-6,0
PROBA-1,2001-049B,2026-07-14T14:46:13.972800,15.07615088,.0055843,97.9600,205.1071,31.7032,328.7538,0,U,26958,999,34775,.95511524E-4,.1434E-4,0
SAUDISAT 1C (SO-50),2002-058C,2026-07-14T07:55:14.426112,14.83097490,.00745557,64.5518,45.0024,257.4262,101.8498,0,U,27607,999,26848,.63645031E-4,.387E-5,0
CORIOLIS,2003-001A,2026-07-14T14:35:33.349632,14.19951709,.00148912,98.7134,202.0746,130.7545,229.4927,0,U,27640,999,21811,.41076232E-4,.44E-6,0
CUTE-1 (CO-55),2003-031E,2026-07-14T13:46:54.319584,14.24351311,.00108284,98.6742,203.7891,104.2879,255.9503,0,U,27844,999,19557,.7958485E-4,.14E-5,0
CUBESAT XI-IV (CO-57),2003-031J,2026-07-14T13:50:06.355680,14.23634354,.00105265,98.6774,203.4819,121.1058,239.1154,0,U,27848,999,19527,.70501477E-4,.117E-5,0
MOZHAETS 4 (RS22),2003-042A,2026-07-14T15:38:27.682656,14.73514870,.00111882,98.3469,20.7880,174.9452,274.4102,0,U,27939,999,21959,.12153009E-3,.736E-5,0
